LANDSAT 9               
1 49260U 21088A   24286.80210071  .00002333  00000+0  52801-3 0  9990
2 49260  98.2207 354.9257 0001456  78.8774 281.2588 14.57093448161820
